[{"OBJECT_NAME":"STARLINK-5529","OBJECT_ID":"2023-064AZ","EPOCH":"2026-03-09T11:37:28.058592","MEAN_MOTION":14.98326175,"ECCENTRICITY":0.00033241,"INCLINATION":69.9996,"RA_OF_ASC_NODE":104.9006,"ARG_OF_PERICENTER":264.4846,"MEAN_ANOMALY":95.5934,"EPHEMERIS_TYPE":0,"CLASSIFICATION_TYPE":"U","NORAD_CAT_ID":56495,"ELEMENT_SET_NO":999,"REV_AT_EPOCH":15620,"BSTAR":2.0532138e-5,"MEAN_MOTION_DOT":1.52e-6,"MEAN_MOTION_DDOT":0},{"OBJECT_NAME":"AAC-AIS-SAT2","OBJECT_ID":"2023-084BY","EPOCH":"2026-03-09T22:09:39.097152","MEAN_MOTION":14.84898245,"ECCENTRICITY":0.00584087,"INCLINATION":98.1313,"RA_OF_ASC_NODE":206.6441,"ARG_OF_PERICENTER":61.4701,"MEAN_ANOMALY":299.2376,"EPHEMERIS_TYPE":0,"CLASSIFICATION_TYPE":"U","NORAD_CAT_ID":56996,"ELEMENT_SET_NO":999,"REV_AT_EPOCH":13864,"BSTAR":0.00055032793,"MEAN_MOTION_DOT":4.769e-5,"MEAN_MOTION_DDOT":0}]
